[{"OBJECT_NAME":"STARLINK-30278","OBJECT_ID":"2023-124F","EPOCH":"2026-03-09T16:46:42.610656","MEAN_MOTION":15.30195609,"ECCENTRICITY":0.00012414,"INCLINATION":53.1615,"RA_OF_ASC_NODE":206.9968,"ARG_OF_PERICENTER":72.608,"MEAN_ANOMALY":287.5057,"EPHEMERIS_TYPE":0,"CLASSIFICATION_TYPE":"U","NORAD_CAT_ID":57668,"ELEMENT_SET_NO":999,"REV_AT_EPOCH":14356,"BSTAR":4.140443e-5,"MEAN_MOTION_DOT":8.67e-6,"MEAN_MOTION_DDOT":0},{"OBJECT_NAME":"TEVEL2-3","OBJECT_ID":"2025-052J","EPOCH":"2026-03-09T15:29:22.754400","MEAN_MOTION":15.30377031,"ECCENTRICITY":0.0004761,"INCLINATION":97.3994,"RA_OF_ASC_NODE":324.7775,"ARG_OF_PERICENTER":105.7353,"MEAN_ANOMALY":254.4413,"EPHEMERIS_TYPE":0,"CLASSIFICATION_TYPE":"U","NORAD_CAT_ID":63218,"ELEMENT_SET_NO":999,"REV_AT_EPOCH":5485,"BSTAR":0.00069446,"MEAN_MOTION_DOT":0.00020365,"MEAN_MOTION_DDOT":0}]
